BEIDOU-2 IGSO-1 (C06)   
1 36828U 10036A   24143.52715141 -.00000023  00000+0  00000+0 0  9991
2 36828  54.2481 169.7941 0042040 206.4494 160.5542  1.00290427 50642
BEIDOU-2 G4 (C04)       
1 37210U 10057A   24142.85015705 -.00000091  00000+0  00000+0 0  9999
2 37210   1.7829  68.4198 0002748 183.7135  93.9958  1.00272245 49703
BEIDOU-2 IGSO-2 (C07)   
1 37256U 10068A   24142.67687043 -.00000219  00000+0  00000+0 0  9993
2 37256  48.9301 281.1429 0034420 209.1370 100.0218  1.00258730 49205
BEIDOU-2 IGSO-3 (C08)   
1 37384U 11013A   24142.66053331 -.00000205  00000+0  00000+0 0  9997
2 37384  61.3147  47.3679 0026042 177.3086   0.9578  1.00265585 48071
BEIDOU-2 IGSO-4 (C09)   
1 37763U 11038A   24143.58073416  .00000071  00000+0  00000+0 0  9993
2 37763  54.5541 172.4010 0124955 228.8143 144.0756  1.00264766 47067
BEIDOU-2 IGSO-5 (C10)   
1 37948U 11073A   24142.82645403 -.00000160  00000+0  00000+0 0  9994
2 37948  49.0616 280.8257 0096776 219.0940 130.5609  1.00257947 45548
BEIDOU-2 G5 (C05)       
1 38091U 12008A   24142.85978772  .00000077  00000+0  00000+0 0  9990
2 38091   2.0127  70.6477 0007411 270.9727 266.6108  1.00275445 44783
BEIDOU-2 M3 (C11)       
1 38250U 12018A   24143.15894305 -.00000066  00000+0  00000+0 0  9990
2 38250  56.3560 330.2066 0020574 264.5191  95.2591  1.86231377 82213
BEIDOU-2 M4 (C12)       
1 38251U 12018B   24143.08925267 -.00000066  00000+0  00000+0 0  9995
2 38251  56.2634 329.4825 0011472 268.1974  91.6833  1.86232108 82216
BEIDOU-2 M6 (C14)       
1 38775U 12050B   24143.33562018 -.00000016  00000+0  00000+0 0  9996
2 38775  55.8942  88.0268 0014534 335.6844  24.2081  1.86231170 79582
BEIDOU-2 G6 (C02)       
1 38953U 12059A   24143.51319527 -.00000153  00000+0  00000+0 0  9990
2 38953   2.4950  80.6602 0010625 316.0204 112.6414  1.00268331 42472
BEIDOU-3S IGSO-1S (C31) 
1 40549U 15019A   24142.88633691 -.00000166  00000+0  00000+0 0  9997
2 40549  50.6240 304.4989 0037420 191.5118 155.4593  1.00255708 33488
BEIDOU-3S M2S (C58)     
1 40748U 15037A   24141.14193338 -.00000072  00000+0  00000+0 0  9991
2 40748  55.4972 327.9857 0007813 253.3557 106.5718  1.86233309 60006
BEIDOU-3S M1S (C57)     
1 40749U 15037B   24141.94923533 -.00000070  00000+0  00000+0 0  9996
2 40749  55.4998 327.9453 0004358   3.7494 356.2658  1.86233097 60028
BEIDOU-3S IGSO-2S (C56) 
1 40938U 15053A   24142.23647132 -.00000163  00000+0  00000+0 0  9998
2 40938  50.4017 267.7193 0051572 189.1169 323.9851  1.00268818 31754
BEIDOU-2 IGSO-6 (C13)   
1 41434U 16021A   24142.69702167 -.00000179  00000+0  00000+0 0  9993
2 41434  59.1396  45.6168 0048160 223.9266 317.2837  1.00276381 29897
BEIDOU-2 G7 (C03)       
1 41586U 16037A   24143.59009362 -.00000333  00000+0  00000+0 0  9997
2 41586   1.8461  69.3361 0009780   3.1345 131.1923  1.00275025 29209
BEIDOU-3 M1 (C19)       
1 43001U 17069A   24143.10168242 -.00000016  00000+0  00000+0 0  9995
2 43001  56.0445  88.1280 0011785 305.9397  53.9123  1.86231550 44528
BEIDOU-3 M2 (C20)       
1 43002U 17069B   24142.50191110 -.00000016  00000+0  00000+0 0  9999
2 43002  56.0433  88.1836 0009806 326.4874  33.4123  1.86231059 44507
BEIDOU-3 M7 (C27)       
1 43107U 18003A   24142.25133727 -.00000071  00000+0  00000+0 0  9997
2 43107  54.9544 328.5507 0005091  71.2616 288.8058  1.86232589 43253
BEIDOU-3 M8 (C28)       
1 43108U 18003B   24142.19154468 -.00000071  00000+0  00000+0 0  9996
2 43108  54.9476 328.5385 0002350 263.7511  96.2342  1.86231065 43265
BEIDOU-3 M4 (C22)       
1 43207U 18018A   24143.16975442 -.00000016  00000+0  00000+0 0  9992
2 43207  56.0032  88.2158 0007219 347.7162  12.2272  1.86231464 42664
BEIDOU-3 M3 (C21)       
1 43208U 18018B   24142.16242510 -.00000016  00000+0  00000+0 0  9995
2 43208  56.0022  88.2537 0009687 316.7989  43.0873  1.86231439 42648
BEIDOU-3 M9 (C29)       
1 43245U 18029A   24142.38396180 -.00000070  00000+0  00000+0 0  9995
2 43245  54.8392 326.2567 0000648  76.4584 283.5569  1.86232858 41808
BEIDOU-3 M10 (C30)      
1 43246U 18029B   24143.38757242 -.00000067  00000+0  00000+0 0  9993
2 43246  54.8351 326.2499 0004214  21.5470 338.4766  1.86232973 41814
BEIDOU-2 IGSO-7 (C16)   
1 43539U 18057A   24143.53013351 -.00000028  00000+0  00000+0 0  9999
2 43539  55.1377 169.5920 0074983 233.4092 140.6373  1.00261069 21552
BEIDOU-3 M5 (C23)       
1 43581U 18062A   24142.53635265  .00000063  00000+0  00000+0 0  9993
2 43581  54.1339 208.0424 0004418 274.2516  85.7840  1.86228880 39548
BEIDOU-3 M6 (C24)       
1 43582U 18062B   24141.86538409  .00000055  00000+0  00000+0 0  9992
2 43582  54.1336 208.0548 0004143   8.2998 351.7892  1.86229652 39537
BEIDOU-3 M12 (C26)      
1 43602U 18067A   24141.79902791  .00000057  00000+0  00000+0 0  9993
2 43602  54.2241 206.7355 0006719  20.8038 339.3068  1.86231820 39013
BEIDOU-3 M11 (C25)      
1 43603U 18067B   24143.54381352  .00000072  00000+0  00000+0 0  9990
2 43603  54.2212 206.6415 0003625   5.0817 355.0146  1.86231668 39079
BEIDOU-3 M13 (C32)      
1 43622U 18072A   24142.43054986 -.00000017  00000+0  00000+0 0  9994
2 43622  55.9735  87.7720 0008311 305.4748  54.4098  1.86231546 38566
BEIDOU-3 M14 (C33)      
1 43623U 18072B   24142.29600530 -.00000017  00000+0  00000+0 0  9991
2 43623  55.9752  87.7695 0006382 328.0933  31.8303  1.86231532 38552
BEIDOU-3 M16 (C35)      
1 43647U 18078A   24141.92197890 -.00000072  00000+0  00000+0 0  9993
2 43647  54.7357 326.3734 0007607  23.4824 336.5617  1.86232396 38055
BEIDOU-3 M15 (C34)      
1 43648U 18078B   24143.12505609 -.00000069  00000+0  00000+0 0  9995
2 43648  54.7308 326.3349 0004733  37.5208 322.5188  1.86232339 38104
BEIDOU-3 G1 (C59)       
1 43683U 18085A   24142.91772062 -.00000256  00000+0  00000+0 0  9995
2 43683   2.1273 110.5805 0004222 345.9286 253.9663  1.00271954 20474
BEIDOU-3 M17 (C36)      
1 43706U 18093A   24143.27504788  .00000069  00000+0  00000+0 0  9999
2 43706  54.2169 207.9537 0009453 279.5838  80.3996  1.86228510 37441
BEIDOU-3 M18 (C37)      
1 43707U 18093B   24142.60363748  .00000063  00000+0  00000+0 0  9999
2 43707  54.2176 207.9683 0007376 306.6321  53.3868  1.86229982 37445
BEIDOU-3 IGSO-1 (C38)   
1 44204U 19023A   24142.63313583 -.00000234  00000+0  00000+0 0  9992
2 44204  57.6042  45.5026 0018973 212.0315 327.6254  1.00257678 18750
BEIDOU-2 G8 (C01)       
1 44231U 19027A   24142.91867787 -.00000227  00000+0  00000+0 0  9999
2 44231   1.8843  73.7419 0002246 162.8104 118.7607  1.00273359 18499
BEIDOU-3 IGSO-2 (C39)   
1 44337U 19035A   24142.50966325 -.00000029  00000+0  00000+0 0  9998
2 44337  55.1734 165.5018 0033066 209.3945 164.5714  1.00249706 18088
BEIDOU-3 M24 (C46)      
1 44542U 19061A   24143.21036114  .00000068  00000+0  00000+0 0  9990
2 44542  54.4446 208.2370 0007333 346.8561  13.2145  1.86231289 31717
BEIDOU-3 M23 (C45)      
1 44543U 19061B   24142.79841172  .00000065  00000+0  00000+0 0  9998
2 44543  54.4428 208.2201 0004767 327.4021  28.7097  1.86231780 31707
BEIDOU-3 IGSO-3 (C40)   
1 44709U 19073A   24141.81112057 -.00000208  00000+0  00000+0 0  9990
2 44709  56.0980 289.0132 0038171 180.4810 179.4284  1.00257851 16866
BEIDOU-3 M22 (C44)      
1 44793U 19078A   24142.51916181 -.00000070  00000+0  00000+0 0  9993
2 44793  54.5832 326.2880 0006667  31.6500 328.3980  1.86232310 30557
BEIDOU-3 M21 (C43)      
1 44794U 19078B   24143.18596548 -.00000069  00000+0  00000+0 0  9997
2 44794  54.5562 326.2416 0004504  30.0830 329.9490  1.86232714 30573
BEIDOU-3 M19 (C41)      
1 44864U 19090A   24143.17069662 -.00000016  00000+0  00000+0 0  9992
2 44864  55.9084  87.9204 0018936 284.5740 258.1621  1.86231817 30146
BEIDOU-3 M20 (C42)      
1 44865U 19090B   24143.43525302 -.00000016  00000+0  00000+0 0  9990
2 44865  55.9102  87.9448 0016935 297.1001 152.7497  1.86231737 30135
BEIDOU-3 G2 (C60)       
1 45344U 20017A   24143.12055972 -.00000121  00000+0  00000+0 0  9998
2 45344   2.2857  28.6017 0000946  55.1280 279.9425  1.00271543 15692
BEIDOU-3 G3 (C61)       
1 45807U 20040A   24142.90066314 -.00000334  00000+0  00000+0 0  9991
2 45807   0.7356  38.7861 0004958 293.9819 342.0789  1.00271739 14487
BEIDOU-3 G4             
1 56564U 23066A   24143.13648486 -.00000090  00000+0  00000+0 0  9995
2 56564   2.1882 288.2230 0005170 192.6508 328.5985  1.00271792  3820
BEIDOU-3 M25            
1 58654U 23207A   24143.26861567 -.00000017  00000+0  00000+0 0  9994
2 58654  55.0910  87.9507 0004166 301.3771  58.5435  1.86232373  2765
BEIDOU-3 M26            
1 58655U 23207B   24142.53057897 -.00000018  00000+0  00000+0 0  9998
2 58655  55.0925  87.9613 0004615 282.8400  77.0704  1.86231976  2731
